SL-3 R/B                
1 19046U 88032B   26087.49439684  .00006074  00000+0  28179-3 0  9997
2 19046  97.5210  70.6845 0026303 164.4657 195.7391 15.20111482 54967
SL-16 R/B               
1 19120U 88039B   26087.30058209  .00000175  00000+0  10529-3 0  9993
2 19120  71.0166  29.1933 0023644 307.6778  52.2202 14.19618825961026
COSMOS 1953             
1 19210U 88050A   26087.54304129  .00007516  00000+0  26674-3 0  9991
2 19210  82.5084 139.2823 0012371  63.8227 296.4283 15.28812301 40663
SL-8 R/B                
1 19257U 88053B   26087.44758830  .00000369  00000+0  12793-3 0  9992
2 19257  74.0455  77.8862 0021475 254.6999 267.2318 14.38928827979299
COSMOS 1975             
1 19573U 88093A   26087.51722534  .00007977  00000+0  28733-3 0  9990
2 19573  82.5163  98.7773 0013402 103.3077 256.9658 15.28319504 22287
SL-14 R/B               
1 19574U 88093B   26087.32877701  .00000616  00000+0  68113-4 0  9997
2 19574  82.5338  24.5492 0020157 340.7996 134.6651 14.85678488  3789
SL-16 R/B               
1 19650U 88102B   26087.48187472 -.00000148  00000+0 -50536-4 0  9991
2 19650  70.9971 111.9564 0015106 333.4677  26.5671 14.16153562929550
INTERCOSMOS 24          
1 20261U 89080A   26087.46902403  .00000557  00000+0  16473-3 0  9997
2 20261  82.6011  92.1712 1186851 249.1916  97.8260 12.59582048669169
SL-14 R/B               
1 20262U 89080C   26087.44019883  .00000390  00000+0  10889-3 0  9997
2 20262  82.5956 161.1544 1230892 141.9115 227.5838 12.50511754662491
DELTA 1 R/B             
1 20323U 89089B   26087.52009468  .00000349  00000+0  94681-4 0  9998
2 20323  97.0692 291.9616 0070519  63.6661 297.1757 14.50678161898461
ARIANE 40 R/B           
1 20443U 90005H   26087.43707200  .00000272  00000+0  99891-4 0  9993
2 20443  98.3045 147.5364 0010969 143.6705 216.5230 14.39882479895506
DELTA 2 R/B(1)          
1 20453U 90008B   26086.96792605  .00070325  00000+0  76859-3 0  9991
2 20453  35.6038  54.6827 0078041  69.6240 291.2859 15.58359382928981
