CCSDS_OMM_VERS = 2.0
CREATION_DATE  = 
ORIGINATOR     = 

OBJECT_NAME    = SL-3 R/B
OBJECT_ID      = 1988-032B
CENTER_NAME    = EARTH
REF_FRAME      = TEME
TIME_SYSTEM    = UTC
MEAN_ELEMENT_THEORY = SGP/SGP4

EPOCH          = 2026-03-28T11:51:55.886976
MEAN_MOTION    = 15.20111482
ECCENTRICITY   = .0026303
INCLINATION    = 97.5210
RA_OF_ASC_NODE = 70.6845
ARG_OF_PERICENTER = 164.4657
MEAN_ANOMALY   = 195.7391

EPHEMERIS_TYPE = 0
CLASSIFICATION_TYPE = U
NORAD_CAT_ID   = 19046
ELEMENT_SET_NO = 999
REV_AT_EPOCH   = 5496
BSTAR          = .28179E-3
MEAN_MOTION_DOT = .6074E-4
MEAN_MOTION_DDOT = 0

CCSDS_OMM_VERS = 2.0
CREATION_DATE  = 
ORIGINATOR     = 

OBJECT_NAME    = SL-16 R/B
OBJECT_ID      = 1988-039B
CENTER_NAME    = EARTH
REF_FRAME      = TEME
TIME_SYSTEM    = UTC
MEAN_ELEMENT_THEORY = SGP/SGP4

EPOCH          = 2026-03-28T07:12:50.292576
MEAN_MOTION    = 14.19618825
ECCENTRICITY   = .0023644
INCLINATION    = 71.0166
RA_OF_ASC_NODE = 29.1933
ARG_OF_PERICENTER = 307.6778
MEAN_ANOMALY   = 52.2202

EPHEMERIS_TYPE = 0
CLASSIFICATION_TYPE = U
NORAD_CAT_ID   = 19120
ELEMENT_SET_NO = 999
REV_AT_EPOCH   = 96102
BSTAR          = .10529E-3
MEAN_MOTION_DOT = .175E-5
MEAN_MOTION_DDOT = 0

CCSDS_OMM_VERS = 2.0
CREATION_DATE  = 
ORIGINATOR     = 

OBJECT_NAME    = COSMOS 1953
OBJECT_ID      = 1988-050A
CENTER_NAME    = EARTH
REF_FRAME      = TEME
TIME_SYSTEM    = UTC
MEAN_ELEMENT_THEORY = SGP/SGP4

EPOCH          = 2026-03-28T13:01:58.767456
MEAN_MOTION    = 15.28812301
ECCENTRICITY   = .0012371
INCLINATION    = 82.5084
RA_OF_ASC_NODE = 139.2823
ARG_OF_PERICENTER = 63.8227
MEAN_ANOMALY   = 296.4283

EPHEMERIS_TYPE = 0
CLASSIFICATION_TYPE = U
NORAD_CAT_ID   = 19210
ELEMENT_SET_NO = 999
REV_AT_EPOCH   = 4066
BSTAR          = .26674E-3
MEAN_MOTION_DOT = .7516E-4
MEAN_MOTION_DDOT = 0

CCSDS_OMM_VERS = 2.0
CREATION_DATE  = 
ORIGINATOR     = 

OBJECT_NAME    = SL-8 R/B
OBJECT_ID      = 1988-053B
CENTER_NAME    = EARTH
REF_FRAME      = TEME
TIME_SYSTEM    = UTC
MEAN_ELEMENT_THEORY = SGP/SGP4

EPOCH          = 2026-03-28T10:44:31.629120
MEAN_MOTION    = 14.38928827
ECCENTRICITY   = .0021475
INCLINATION    = 74.0455
RA_OF_ASC_NODE = 77.8862
ARG_OF_PERICENTER = 254.6999
MEAN_ANOMALY   = 267.2318

EPHEMERIS_TYPE = 0
CLASSIFICATION_TYPE = U
NORAD_CAT_ID   = 19257
ELEMENT_SET_NO = 999
REV_AT_EPOCH   = 97929
BSTAR          = .12793E-3
MEAN_MOTION_DOT = .369E-5
MEAN_MOTION_DDOT = 0

CCSDS_OMM_VERS = 2.0
CREATION_DATE  = 
ORIGINATOR     = 

OBJECT_NAME    = COSMOS 1975
OBJECT_ID      = 1988-093A
CENTER_NAME    = EARTH
REF_FRAME      = TEME
TIME_SYSTEM    = UTC
MEAN_ELEMENT_THEORY = SGP/SGP4

EPOCH          = 2026-03-28T12:24:48.269376
MEAN_MOTION    = 15.28319504
ECCENTRICITY   = .0013402
INCLINATION    = 82.5163
RA_OF_ASC_NODE = 98.7773
ARG_OF_PERICENTER = 103.3077
MEAN_ANOMALY   = 256.9658

EPHEMERIS_TYPE = 0
CLASSIFICATION_TYPE = U
NORAD_CAT_ID   = 19573
ELEMENT_SET_NO = 999
REV_AT_EPOCH   = 2228
BSTAR          = .28733E-3
MEAN_MOTION_DOT = .7977E-4
MEAN_MOTION_DDOT = 0

CCSDS_OMM_VERS = 2.0
CREATION_DATE  = 
ORIGINATOR     = 

OBJECT_NAME    = SL-14 R/B
OBJECT_ID      = 1988-093B
CENTER_NAME    = EARTH
REF_FRAME      = TEME
TIME_SYSTEM    = UTC
MEAN_ELEMENT_THEORY = SGP/SGP4

EPOCH          = 2026-03-28T07:53:26.333664
MEAN_MOTION    = 14.85678488
ECCENTRICITY   = .0020157
INCLINATION    = 82.5338
RA_OF_ASC_NODE = 24.5492
ARG_OF_PERICENTER = 340.7996
MEAN_ANOMALY   = 134.6651

EPHEMERIS_TYPE = 0
CLASSIFICATION_TYPE = U
NORAD_CAT_ID   = 19574
ELEMENT_SET_NO = 999
REV_AT_EPOCH   = 378
BSTAR          = .68113E-4
MEAN_MOTION_DOT = .616E-5
MEAN_MOTION_DDOT = 0

CCSDS_OMM_VERS = 2.0
CREATION_DATE  = 
ORIGINATOR     = 

OBJECT_NAME    = SL-16 R/B
OBJECT_ID      = 1988-102B
CENTER_NAME    = EARTH
REF_FRAME      = TEME
TIME_SYSTEM    = UTC
MEAN_ELEMENT_THEORY = SGP/SGP4

EPOCH          = 2026-03-28T11:33:53.975808
MEAN_MOTION    = 14.16153562
ECCENTRICITY   = .0015106
INCLINATION    = 70.9971
RA_OF_ASC_NODE = 111.9564
ARG_OF_PERICENTER = 333.4677
MEAN_ANOMALY   = 26.5671

EPHEMERIS_TYPE = 0
CLASSIFICATION_TYPE = U
NORAD_CAT_ID   = 19650
ELEMENT_SET_NO = 999
REV_AT_EPOCH   = 92955
BSTAR          = -.50536E-4
MEAN_MOTION_DOT = -.148E-5
MEAN_MOTION_DDOT = 0

CCSDS_OMM_VERS = 2.0
CREATION_DATE  = 
ORIGINATOR     = 

OBJECT_NAME    = INTERCOSMOS 24
OBJECT_ID      = 1989-080A
CENTER_NAME    = EARTH
REF_FRAME      = TEME
TIME_SYSTEM    = UTC
MEAN_ELEMENT_THEORY = SGP/SGP4

EPOCH          = 2026-03-28T11:15:23.676192
MEAN_MOTION    = 12.59582048
ECCENTRICITY   = .1186851
INCLINATION    = 82.6011
RA_OF_ASC_NODE = 92.1712
ARG_OF_PERICENTER = 249.1916
MEAN_ANOMALY   = 97.8260

EPHEMERIS_TYPE = 0
CLASSIFICATION_TYPE = U
NORAD_CAT_ID   = 20261
ELEMENT_SET_NO = 999
REV_AT_EPOCH   = 66916
BSTAR          = .16473E-3
MEAN_MOTION_DOT = .557E-5
MEAN_MOTION_DDOT = 0

CCSDS_OMM_VERS = 2.0
CREATION_DATE  = 
ORIGINATOR     = 

OBJECT_NAME    = SL-14 R/B
OBJECT_ID      = 1989-080C
CENTER_NAME    = EARTH
REF_FRAME      = TEME
TIME_SYSTEM    = UTC
MEAN_ELEMENT_THEORY = SGP/SGP4

EPOCH          = 2026-03-28T10:33:53.178912
MEAN_MOTION    = 12.50511754
ECCENTRICITY   = .1230892
INCLINATION    = 82.5956
RA_OF_ASC_NODE = 161.1544
ARG_OF_PERICENTER = 141.9115
MEAN_ANOMALY   = 227.5838

EPHEMERIS_TYPE = 0
CLASSIFICATION_TYPE = U
NORAD_CAT_ID   = 20262
ELEMENT_SET_NO = 999
REV_AT_EPOCH   = 66249
BSTAR          = .10889E-3
MEAN_MOTION_DOT = .39E-5
MEAN_MOTION_DDOT = 0

CCSDS_OMM_VERS = 2.0
CREATION_DATE  = 
ORIGINATOR     = 

OBJECT_NAME    = DELTA 1 R/B
OBJECT_ID      = 1989-089B
CENTER_NAME    = EARTH
REF_FRAME      = TEME
TIME_SYSTEM    = UTC
MEAN_ELEMENT_THEORY = SGP/SGP4

EPOCH          = 2026-03-28T12:28:56.180352
MEAN_MOTION    = 14.50678161
ECCENTRICITY   = .0070519
INCLINATION    = 97.0692
RA_OF_ASC_NODE = 291.9616
ARG_OF_PERICENTER = 63.6661
MEAN_ANOMALY   = 297.1757

EPHEMERIS_TYPE = 0
CLASSIFICATION_TYPE = U
NORAD_CAT_ID   = 20323
ELEMENT_SET_NO = 999
REV_AT_EPOCH   = 89846
BSTAR          = .94681E-4
MEAN_MOTION_DOT = .349E-5
MEAN_MOTION_DDOT = 0

CCSDS_OMM_VERS = 2.0
CREATION_DATE  = 
ORIGINATOR     = 

OBJECT_NAME    = ARIANE 40 R/B
OBJECT_ID      = 1990-005H
CENTER_NAME    = EARTH
REF_FRAME      = TEME
TIME_SYSTEM    = UTC
MEAN_ELEMENT_THEORY = SGP/SGP4

EPOCH          = 2026-03-28T10:29:23.020800
MEAN_MOTION    = 14.39882479
ECCENTRICITY   = .0010969
INCLINATION    = 98.3045
RA_OF_ASC_NODE = 147.5364
ARG_OF_PERICENTER = 143.6705
MEAN_ANOMALY   = 216.5230

EPHEMERIS_TYPE = 0
CLASSIFICATION_TYPE = U
NORAD_CAT_ID   = 20443
ELEMENT_SET_NO = 999
REV_AT_EPOCH   = 89550
BSTAR          = .99891E-4
MEAN_MOTION_DOT = .272E-5
MEAN_MOTION_DDOT = 0

CCSDS_OMM_VERS = 2.0
CREATION_DATE  = 
ORIGINATOR     = 

OBJECT_NAME    = DELTA 2 R/B(1)
OBJECT_ID      = 1990-008B
CENTER_NAME    = EARTH
REF_FRAME      = TEME
TIME_SYSTEM    = UTC
MEAN_ELEMENT_THEORY = SGP/SGP4

EPOCH          = 2026-03-27T23:13:48.810720
MEAN_MOTION    = 15.58359382
ECCENTRICITY   = .0078041
INCLINATION    = 35.6038
RA_OF_ASC_NODE = 54.6827
ARG_OF_PERICENTER = 69.6240
MEAN_ANOMALY   = 291.2859

EPHEMERIS_TYPE = 0
CLASSIFICATION_TYPE = U
NORAD_CAT_ID   = 20453
ELEMENT_SET_NO = 999
REV_AT_EPOCH   = 92898
BSTAR          = .76859E-3
MEAN_MOTION_DOT = .70325E-3
MEAN_MOTION_DDOT = 0

